IRIDIUM 106             
1 41917U 17003A   24145.24664728  .00000579  00000+0  19970-3 0  9997
2 41917  86.3996  43.5930 0001844  94.0144 266.1263 14.34215946385144
IRIDIUM 103             
1 41918U 17003B   24144.81534990  .00000596  00000+0  20589-3 0  9994
2 41918  86.3995  43.6752 0002108  76.9224 283.2207 14.34214209385104
IRIDIUM 109             
1 41919U 17003C   24144.75192358  .00000481  00000+0  16458-3 0  9999
2 41919  86.3996  43.7487 0002474  82.5458 277.6018 14.34214111385064
IRIDIUM 102             
1 41920U 17003D   24144.78998233  .00000610  00000+0  21061-3 0  9990
2 41920  86.3994  43.6724 0002418  86.1653 273.9820 14.34217042385158
IRIDIUM 105             
1 41921U 17003E   24144.69091823  .00000489  00000+0  16742-3 0  9994
2 41921  86.3999  12.1533 0002126  82.5243 277.6194 14.34230620386999
IRIDIUM 104             
1 41922U 17003F   24144.80267442  .00000597  00000+0  20608-3 0  9996
2 41922  86.3996  43.6980 0002522  78.1208 282.0271 14.34213247385142
IRIDIUM 114             
1 41923U 17003G   24145.22761978  .00000509  00000+0  17465-3 0  9997
2 41923  86.3994  43.5063 0002021  90.6281 269.5146 14.34215786385204
IRIDIUM 108             
1 41924U 17003H   24145.18613437  .00000367  00000+0  12414-3 0  9990
2 41924  86.3991  11.8728 0002005  91.0874 269.0551 14.34214448387057
